{"type": "FeatureCollection", "features": [ {"type": "Feature", "properties": {"norad_id": 66860, "name": "STARLINK-35987", "group": "last-30-days", "lat": -41.95908139718156, "lon": -10.473593899678324, "alt_km": 369.06371805290746, "timestamp": "2025-12-22T05:49:02.186939+00:00", "meta": {"OBJECT_NAME": "STARLINK-35987", "OBJECT_ID": "2025-281N", "EPOCH": "2025-12-21T20:00:01.999008", "MEAN_MOTION": 15.68975476, "ECCENTRICITY": 0.0001173, "INCLINATION": 43.0003, "RA_OF_ASC_NODE": 66.7508, "ARG_OF_PERICENTER": 285.2202, "MEAN_ANOMALY": 204.2203, "EPHEMERIS_TYPE": 0, "CLASSIFICATION_TYPE": "U", "NORAD_CAT_ID": 66860, "ELEMENT_SET_NO": 999, "REV_AT_EPOCH": 285, "BSTAR": -0.018568, "MEAN_MOTION_DOT": -0.01949026, "MEAN_MOTION_DDOT": 0}, "tle": {"line1": "1 66860U 25281N   25355.83335647 -.01949026  00000+0 -18568-1 0  9994", "line2": "2 66860  43.0003  66.7508 0001173 285.2202 204.2203 15.68975476  2859"}}, "geometry": {"type": "Point", "coordinates": [-10.473593899678324, -41.95908139718156]}}, {"type": "Feature", "properties": {"norad_id": 66861, "name": "STARLINK-35991", "group": "last-30-days", "lat": -42.7322296104976, "lon": -18.162366428259414, "alt_km": 369.0620127950806, "timestamp": "2025-12-22T05:49:02.186949+00:00", "meta": {"OBJECT_NAME": "STARLINK-35991", "OBJECT_ID": "2025-281P", "EPOCH": "2025-12-21T20:00:01.999008", "MEAN_MOTION": 15.68977578, "ECCENTRICITY": 0.0001246, "INCLINATION": 43.0003, "RA_OF_ASC_NODE": 66.7656, "ARG_OF_PERICENTER": 285.2038, "MEAN_ANOMALY": 198.4842, "EPHEMERIS_TYPE": 0, "CLASSIFICATION_TYPE": "U", "NORAD_CAT_ID": 66861, "ELEMENT_SET_NO": 999, "REV_AT_EPOCH": 285, "BSTAR": -0.01859, "MEAN_MOTION_DOT": -0.01951309, "MEAN_MOTION_DDOT": 0}, "tle": {"line1": "1 66861U 25281P   25355.83335647 -.01951309  00000+0 -18590-1 0  9997", "line2": "2 66861  43.0003  66.7656 0001246 285.2038 198.4842 15.68977578  2850"}}, "geometry": {"type": "Point", "coordinates": [-18.162366428259414, -42.7322296104976]}}, {"type": "Feature", "properties": {"norad_id": 66862, "name": "STARLINK-35974", "group": "last-30-days", "lat": -42.87345871056853, "lon": -20.751558849148186, "alt_km": 369.0396364678645, "timestamp": "2025-12-22T05:49:02.186959+00:00", "meta": {"OBJECT_NAME": "STARLINK-35974", "OBJECT_ID": "2025-281Q", "EPOCH": "2025-12-21T20:00:01.999008", "MEAN_MOTION": 15.68963467, "ECCENTRICITY": 0.0001311, "INCLINATION": 43.0003, "RA_OF_ASC_NODE": 66.7703, "ARG_OF_PERICENTER": 278.3684, "MEAN_ANOMALY": 203.4253, "EPHEMERIS_TYPE": 0, "CLASSIFICATION_TYPE": "U", "NORAD_CAT_ID": 66862, "ELEMENT_SET_NO": 999, "REV_AT_EPOCH": 275, "BSTAR": -0.018574, "MEAN_MOTION_DOT": -0.0194882, "MEAN_MOTION_DDOT": 0}, "tle": {"line1": "1 66862U 25281Q   25355.83335647 -.01948820  00000+0 -18574-1 0  9994", "line2": "2 66862  43.0003  66.7703 0001311 278.3684 203.4253 15.68963467  2751"}}, "geometry": {"type": "Point", "coordinates": [-20.751558849148186, -42.87345871056853]}}, {"type": "Feature", "properties": {"norad_id": 66863, "name": "STARLINK-36134", "group": "last-30-days", "lat": -42.531994066698864, "lon": -15.57859536861517, "alt_km": 369.0856225443349, "timestamp": "2025-12-22T05:49:02.186969+00:00", "meta": {"OBJECT_NAME": "STARLINK-36134", "OBJECT_ID": "2025-281R", "EPOCH": "2025-12-21T20:00:01.999008", "MEAN_MOTION": 15.68979785, "ECCENTRICITY": 0.0001203, "INCLINATION": 43.0003, "RA_OF_ASC_NODE": 66.7609, "ARG_OF_PERICENTER": 286.4593, "MEAN_ANOMALY": 199.1461, "EPHEMERIS_TYPE": 0, "CLASSIFICATION_TYPE": "U", "NORAD_CAT_ID": 66863, "ELEMENT_SET_NO": 999, "REV_AT_EPOCH": 285, "BSTAR": -0.018633, "MEAN_MOTION_DOT": -0.0195543, "MEAN_MOTION_DDOT": 0}, "tle": {"line1": "1 66863U 25281R   25355.83335647 -.01955430  00000+0 -18633-1 0  9996", "line2": "2 66863  43.0003  66.7609 0001203 286.4593 199.1461 15.68979785  2859"}}, "geometry": {"type": "Point", "coordinates": [-15.57859536861517, -42.531994066698864]}}, {"type": "Feature", "properties": {"norad_id": 66864, "name": "STARLINK-36070", "group": "last-30-days", "lat": -42.27434327524611, "lon": -13.018172514662634, "alt_km": 369.0010011297627, "timestamp": "2025-12-22T05:49:02.186979+00:00", "meta": {"OBJECT_NAME": "STARLINK-36070", "OBJECT_ID": "2025-281S", "EPOCH": "2025-12-21T20:00:01.999008", "MEAN_MOTION": 15.68971599, "ECCENTRICITY": 0.0001279, "INCLINATION": 43.0003, "RA_OF_ASC_NODE": 66.7556, "ARG_OF_PERICENTER": 285.7856, "MEAN_ANOMALY": 201.736, "EPHEMERIS_TYPE": 0, "CLASSIFICATION_TYPE": "U", "NORAD_CAT_ID": 66864, "ELEMENT_SET_NO": 999, "REV_AT_EPOCH": 288, "BSTAR": -0.018489, "MEAN_MOTION_DOT": -0.0194156, "MEAN_MOTION_DDOT": 0}, "tle": {"line1": "1 66864U 25281S   25355.83335647 -.01941560  00000+0 -18489-1 0  9995", "line2": "2 66864  43.0003  66.7556 0001279 285.7856 201.7360 15.68971599  2884"}}, "geometry": {"type": "Point", "coordinates": [-13.018172514662634, -42.27434327524611]}}, {"type": "Feature", "properties": {"norad_id": 66865, "name": "STARLINK-36117", "group": "last-30-days", "lat": -41.588408947565156, "lon": -7.958958249333918, "alt_km": 369.0145901700662, "timestamp": "2025-12-22T05:49:02.186989+00:00", "meta": {"OBJECT_NAME": "STARLINK-36117", "OBJECT_ID": "2025-281T", "EPOCH": "2025-12-21T20:00:01.999008", "MEAN_MOTION": 15.68977945, "ECCENTRICITY": 0.0001224, "INCLINATION": 43.0002, "RA_OF_ASC_NODE": 66.7465, "ARG_OF_PERICENTER": 285.5356, "MEAN_ANOMALY": 205.8218, "EPHEMERIS_TYPE": 0, "CLASSIFICATION_TYPE": "U", "NORAD_CAT_ID": 66865, "ELEMENT_SET_NO": 999, "REV_AT_EPOCH": 285, "BSTAR": -0.018613, "MEAN_MOTION_DOT": -0.01953429, "MEAN_MOTION_DDOT": 0}, "tle": {"line1": "1 66865U 25281T   25355.83335647 -.01953429  00000+0 -18613-1 0  9992", "line2": "2 66865  43.0002  66.7465 0001224 285.5356 205.8218 15.68977945  2851"}}, "geometry": {"type": "Point", "coordinates": [-7.958958249333918, -41.588408947565156]}}, {"type": "Feature", "properties": {"norad_id": 66866, "name": "STARLINK-36126", "group": "last-30-days", "lat": -41.16459490125184, "lon": -5.4800925636085385, "alt_km": 368.93229372109363, "timestamp": "2025-12-22T05:49:02.186999+00:00", "meta": {"OBJECT_NAME": "STARLINK-36126", "OBJECT_ID": "2025-281U", "EPOCH": "2025-12-21T20:00:01.999008", "MEAN_MOTION": 15.68974681, "ECCENTRICITY": 0.0001369, "INCLINATION": 43.0005, "RA_OF_ASC_NODE": 66.7415, "ARG_OF_PERICENTER": 291.0371, "MEAN_ANOMALY": 202.2459, "EPHEMERIS_TYPE": 0, "CLASSIFICATION_TYPE": "U", "NORAD_CAT_ID": 66866, "ELEMENT_SET_NO": 999, "REV_AT_EPOCH": 288, "BSTAR": -0.018682, "MEAN_MOTION_DOT": -0.01959692, "MEAN_MOTION_DDOT": 0}, "tle": {"line1": "1 66866U 25281U   25355.83335647 -.01959692  00000+0 -18682-1 0  9997", "line2": "2 66866  43.0005  66.7415 0001369 291.0371 202.2459 15.68974681  2884"}}, "geometry": {"type": "Point", "coordinates": [-5.4800925636085385, -41.16459490125184]}}, {"type": "Feature", "properties": {"norad_id": 66867, "name": "STARLINK-36101", "group": "last-30-days", "lat": -40.68665098537126, "lon": -3.027673881484063, "alt_km": 369.04523893207624, "timestamp": "2025-12-22T05:49:02.187010+00:00", "meta": {"OBJECT_NAME": "STARLINK-36101", "OBJECT_ID": "2025-281V", "EPOCH": "2025-12-21T20:00:01.999008", "MEAN_MOTION": 15.68964804, "ECCENTRICITY": 0.0001101, "INCLINATION": 43.0008, "RA_OF_ASC_NODE": 66.7368, "ARG_OF_PERICENTER": 283.5345, "MEAN_ANOMALY": 211.6596, "EPHEMERIS_TYPE": 0, "CLASSIFICATION_TYPE": "U", "NORAD_CAT_ID": 66867, "ELEMENT_SET_NO": 999, "REV_AT_EPOCH": 269, "BSTAR": -0.018404, "MEAN_MOTION_DOT": -0.01933075, "MEAN_MOTION_DDOT": 0}, "tle": {"line1": "1 66867U 25281V   25355.83335647 -.01933075  00000+0 -18404-1 0  9997", "line2": "2 66867  43.0008  66.7368 0001101 283.5345 211.6596 15.68964804  2697"}}, "geometry": {"type": "Point", "coordinates": [-3.027673881484063, -40.68665098537126]}}, {"type": "Feature", "properties": {"norad_id": 66868, "name": "STARLINK-36108", "group": "last-30-days", "lat": -40.1572377800708, "lon": -0.6152037214725737, "alt_km": 368.9288983873603, "timestamp": "2025-12-22T05:49:02.187021+00:00", "meta": {"OBJECT_NAME": "STARLINK-36108", "OBJECT_ID": "2025-281W", "EPOCH": "2025-12-21T20:00:01.999008", "MEAN_MOTION": 15.68971021, "ECCENTRICITY": 0.0001239, "INCLINATION": 43.0004, "RA_OF_ASC_NODE": 66.7314, "ARG_OF_PERICENTER": 282.9729, "MEAN_ANOMALY": 214.1348, "EPHEMERIS_TYPE": 0, "CLASSIFICATION_TYPE": "U", "NORAD_CAT_ID": 66868, "ELEMENT_SET_NO": 999, "REV_AT_EPOCH": 269, "BSTAR": -0.018478, "MEAN_MOTION_DOT": -0.01940413, "MEAN_MOTION_DDOT": 0}, "tle": {"line1": "1 66868U 25281W   25355.83335647 -.01940413  00000+0 -18478-1 0  9993", "line2": "2 66868  43.0004  66.7314 0001239 282.9729 214.1348 15.68971021  2698"}}, "geometry": {"type": "Point", "coordinates": [-0.6152037214725737, -40.1572377800708]}}, {"type": "Feature", "properties": {"norad_id": 66869, "name": "STARLINK-36092", "group": "last-30-days", "lat": -39.5779469458523, "lon": 1.762250378412797, "alt_km": 369.05697574071564, "timestamp": "2025-12-22T05:49:02.187033+00:00", "meta": {"OBJECT_NAME": "STARLINK-36092", "OBJECT_ID": "2025-281X", "EPOCH": "2025-12-21T20:00:01.999008", "MEAN_MOTION": 15.68985611, "ECCENTRICITY": 0.0001085, "INCLINATION": 43.0005, "RA_OF_ASC_NODE": 66.7266, "ARG_OF_PERICENTER": 280.475, "MEAN_ANOMALY": 218.5511, "EPHEMERIS_TYPE": 0, "CLASSIFICATION_TYPE": "U", "NORAD_CAT_ID": 66869, "ELEMENT_SET_NO": 999, "REV_AT_EPOCH": 288, "BSTAR": -0.01877, "MEAN_MOTION_DOT": -0.01968405, "MEAN_MOTION_DDOT": 0}, "tle": {"line1": "1 66869U 25281X   25355.83335647 -.01968405  00000+0 -18770-1 0  9990", "line2": "2 66869  43.0005  66.7266 0001085 280.4750 218.5511 15.68985611  2883"}}, "geometry": {"type": "Point", "coordinates": [1.762250378412797, -39.5779469458523]}}]}